{
    "links": {
        "self": "http://www.neowsapp.com/rest/v1/neo/3797671?api_key=iIulBulltgU6a56xZRHN4H3l9WmuAYTsLGpBGhQ2"
    },
    "id": "3797671",
    "neo_reference_id": "3797671",
    "name": "(2018 AY11)",
    "designation": "2018 AY11",
    "nasa_jpl_url": "http://ssd.jpl.nasa.gov/sbdb.cgi?sstr=3797671",
    "absolute_magnitude_h": 25.2,
    "estimated_diameter": {
        "kilometers": {
            "estimated_diameter_min": 0.0242412481,
            "estimated_diameter_max": 0.0542050786
        },
        "meters": {
            "estimated_diameter_min": 24.2412481101,
            "estimated_diameter_max": 54.2050786336
        },
        "miles": {
            "estimated_diameter_min": 0.0150628086,
            "estimated_diameter_max": 0.0336814639
        },
        "feet": {
            "estimated_diameter_min": 79.5316564495,
            "estimated_diameter_max": 177.8381901842
        }
    },
    "is_potentially_hazardous_asteroid": false,
    "close_approach_data": [
        {
            "close_approach_date": "1929-01-10",
            "close_approach_date_full": "1929-Jan-10 06:57",
            "epoch_date_close_approach": -1293037380000,
            "relative_velocity": {
                "kilometers_per_second": "20.7196534498",
                "kilometers_per_hour": "74590.7524191803",
                "miles_per_hour": "46347.7928017957"
            },
            "miss_distance": {
                "astronomical": "0.0167734197",
                "lunar": "6.5248602633",
                "kilometers": "2509267.859736039",
                "miles": "1559186.7475897782"
            },
            "orbiting_body": "Earth"
        },
        {
            "close_approach_date": "1931-01-31",
            "close_approach_date_full": "1931-Jan-31 15:57",
            "epoch_date_close_approach": -1228118580000,
            "relative_velocity": {
                "kilometers_per_second": "34.0644289742",
                "kilometers_per_hour": "122631.9443072892",
                "miles_per_hour": "76198.7211724931"
            },
            "miss_distance": {
                "astronomical": "0.4428744325",
                "lunar": "172.2781542425",
                "kilometers": "66253071.779458775",
                "miles": "41167749.829830095"
            },
            "orbiting_body": "Earth"
        },
        {
            "close_approach_date": "2018-01-08",
            "close_approach_date_full": "2018-Jan-08 22:28",
            "epoch_date_close_approach": 1515450480000,
            "relative_velocity": {
                "kilometers_per_second": "19.2937009565",
                "kilometers_per_hour": "69457.3234433849",
                "miles_per_hour": "43158.0796695855"
            },
            "miss_distance": {
                "astronomical": "0.0440918845",
                "lunar": "17.1517430705",
                "kilometers": "6596052.005486015",
                "miles": "4098596.661756407"
            },
            "orbiting_body": "Earth"
        },
        {
            "close_approach_date": "2020-01-29",
            "close_approach_date_full": "2020-Jan-29 15:46",
            "epoch_date_close_approach": 1580312760000,
            "relative_velocity": {
                "kilometers_per_second": "32.0377469831",
                "kilometers_per_hour": "115335.8891390423",
                "miles_per_hour": "71665.2362264232"
            },
            "miss_distance": {
                "astronomical": "0.3774105067",
                "lunar": "146.8126871063",
                "kilometers": "56459807.917940729",
                "miles": "35082497.8431669002"
            },
            "orbiting_body": "Earth"
        }
    ],
    "orbital_data": {
        "orbit_id": "3",
        "orbit_determination_date": "2018-01-21 06:55:38",
        "first_observation_date": "2018-01-14",
        "last_observation_date": "2018-01-21",
        "data_arc_in_days": 7,
        "observations_used": 29,
        "orbit_uncertainty": "8",
        "minimum_orbit_intersection": ".0124372",
        "jupiter_tisserand_invariant": "4.042",
        "epoch_osculation": "2458133.5",
        "eccentricity": ".6587938580674135",
        "semi_major_axis": "1.622659588464767",
        "inclination": "5.965490306243367",
        "ascending_node_longitude": "117.5099090788474",
        "orbital_period": "754.9871457383977",
        "perihelion_distance": ".5536614178499817",
        "perihelion_argument": "257.1548230295217",
        "aphelion_distance": "2.691657759079553",
        "perihelion_time": "2458078.801642755223",
        "mean_anomaly": "26.0817799604535",
        "mean_motion": ".4768293103161517",
        "equinox": "J2000",
        "orbit_class": {
            "orbit_class_type": "APO",
            "orbit_class_description": "Near-Earth asteroid orbits which cross the Earth’s orbit similar to that of 1862 Apollo",
            "orbit_class_range": "a (semi-major axis) > 1.0 AU; q (perihelion) < 1.017 AU"
        }
    },
    "is_sentry_object": false
}